ONEWEB-0589             
1 54655U 22166P   25207.55069204  .00000600  00000+0  14217-2 0  9991
2 54655  87.9275 308.9564 0002107 124.2661 235.8672 13.21823185128998
ONEWEB-0590             
1 54656U 22166Q   25207.19571624  .00000040  00000+0  64579-4 0  9992
2 54656  87.9271 309.0048 0001514 103.2466 256.8837 13.21826751128926
ONEWEB-0591             
1 54657U 22166R   25207.20847958  .00000040  00000+0  64220-4 0  9994
2 54657  87.9275 309.0254 0001962 104.5156 255.6195 13.21825550128950
ONEWEB-0592             
1 54658U 22166S   25207.21163517  .00000096  00000+0  20040-3 0  9990
2 54658  87.9280 308.9760 0001911 104.0952 256.0395 13.21825594128843
ONEWEB-0593             
1 54659U 22166T   25207.23529238  .00000140  00000+0  30736-3 0  9992
2 54659  87.9273 309.0100 0001998 105.6149 254.5205 13.21825670128956
ONEWEB-0594             
1 54660U 22166U   25207.32990917  .00000054  00000+0  98410-4 0  9998
2 54660  87.9278 309.0060 0002041  98.7104 261.4261 13.21825116128977
ONEWEB-0595             
1 54661U 22166V   25207.23213544  .00000102  00000+0  21457-3 0  9993
2 54661  87.9272 309.0018 0001874  94.8390 265.2958 13.21825842128940
ONEWEB-0596             
1 54662U 22166W   25207.20532292  .00000085  00000+0  17450-3 0  9993
2 54662  87.9279 309.0216 0001907  99.8870 260.2480 13.21825722128945
